{"type": "FeatureCollection", "features": [ {"type": "Feature", "properties": {"norad_id": 31568, "name": "FENGYUN 1C DEB", "group": "fengyun-1c-debris", "lat": 34.17215208178027, "lon": 48.70059291712043, "alt_km": 792.4224498706517, "timestamp": "2025-12-06T07:31:40.520091+00:00", "meta": {"OBJECT_NAME": "FENGYUN 1C DEB", "OBJECT_ID": "1999-025BZK", "EPOCH": "2025-11-27T22:38:02.918112", "MEAN_MOTION": 14.03182798, "ECCENTRICITY": 0.0121792, "INCLINATION": 102.0468, "RA_OF_ASC_NODE": 209.318, "ARG_OF_PERICENTER": 158.3893, "MEAN_ANOMALY": 202.2464, "EPHEMERIS_TYPE": 0, "CLASSIFICATION_TYPE": "U", "NORAD_CAT_ID": 31568, "ELEMENT_SET_NO": 999, "REV_AT_EPOCH": 94372, "BSTAR": 0.0028015, "MEAN_MOTION_DOT": 4.595e-05, "MEAN_MOTION_DDOT": 0}, "tle": {"line1": "1 31568U 99025BZK 25331.94308933  .00004595  00000+0  28015-2 0  9991", "line2": "2 31568 102.0468 209.3180 0121792 158.3893 202.2464 14.03182798943726"}}, "geometry": {"type": "Point", "coordinates": [48.70059291712043, 34.17215208178027]}}, {"type": "Feature", "properties": {"norad_id": 31569, "name": "FENGYUN 1C DEB", "group": "fengyun-1c-debris", "lat": 30.420433983945344, "lon": -37.25485692298133, "alt_km": 982.001523713584, "timestamp": "2025-12-06T07:31:40.520101+00:00", "meta": {"OBJECT_NAME": "FENGYUN 1C DEB", "OBJECT_ID": "1999-025BZL", "EPOCH": "2025-11-30T05:24:01.468800", "MEAN_MOTION": 13.95405103, "ECCENTRICITY": 0.01728622, "INCLINATION": 102.6164, "RA_OF_ASC_NODE": 126.885, "ARG_OF_PERICENTER": 36.2337, "MEAN_ANOMALY": 138.7821, "EPHEMERIS_TYPE": 0, "CLASSIFICATION_TYPE": "U", "NORAD_CAT_ID": 31569, "ELEMENT_SET_NO": 999, "REV_AT_EPOCH": 93504, "BSTAR": 0.0023090613, "MEAN_MOTION_DOT": 3.477e-05, "MEAN_MOTION_DDOT": 0}, "tle": {"line1": "1 31569U 99025BZL 25334.22501700  .00003477  00000+0  23091-2 0  9990", "line2": "2 31569 102.6164 126.8850 0172862  36.2337 138.7821 13.95405103935048"}}, "geometry": {"type": "Point", "coordinates": [-37.25485692298133, 30.420433983945344]}}, {"type": "Feature", "properties": {"norad_id": 31570, "name": "FENGYUN 1C DEB", "group": "fengyun-1c-debris", "lat": 60.15332728465205, "lon": -6.379938029907964, "alt_km": 911.6313196708879, "timestamp": "2025-12-06T07:31:40.520111+00:00", "meta": {"OBJECT_NAME": "FENGYUN 1C DEB", "OBJECT_ID": "1999-025BZM", "EPOCH": "2025-11-25T06:40:18.493248", "MEAN_MOTION": 14.24909801, "ECCENTRICITY": 0.01526257, "INCLINATION": 102.5663, "RA_OF_ASC_NODE": 0.7562, "ARG_OF_PERICENTER": 266.5584, "MEAN_ANOMALY": 91.8112, "EPHEMERIS_TYPE": 0, "CLASSIFICATION_TYPE": "U", "NORAD_CAT_ID": 31570, "ELEMENT_SET_NO": 999, "REV_AT_EPOCH": 63118, "BSTAR": 0.0023713757, "MEAN_MOTION_DOT": 6.183e-05, "MEAN_MOTION_DDOT": 0}, "tle": {"line1": "1 31570U 99025BZM 25329.27799182  .00006183  00000+0  23714-2 0  9993", "line2": "2 31570 102.5663   0.7562 0152625 266.5584  91.8112 14.24909801631187"}}, "geometry": {"type": "Point", "coordinates": [-6.379938029907964, 60.15332728465205]}}, {"type": "Feature", "properties": {"norad_id": 31608, "name": "FENGYUN 1C DEB", "group": "fengyun-1c-debris", "lat": -21.57869880100584, "lon": -85.22841750584162, "alt_km": 698.3025936262675, "timestamp": "2025-12-06T07:31:40.520122+00:00", "meta": {"OBJECT_NAME": "FENGYUN 1C DEB", "OBJECT_ID": "1999-025BZN", "EPOCH": "2025-12-04T14:13:29.603136", "MEAN_MOTION": 14.85679772, "ECCENTRICITY": 0.0146671, "INCLINATION": 98.3801, "RA_OF_ASC_NODE": 96.302, "ARG_OF_PERICENTER": 63.9077, "MEAN_ANOMALY": 297.7147, "EPHEMERIS_TYPE": 0, "CLASSIFICATION_TYPE": "U", "NORAD_CAT_ID": 31608, "ELEMENT_SET_NO": 999, "REV_AT_EPOCH": 98512, "BSTAR": 0.0015593, "MEAN_MOTION_DOT": 0.00016394, "MEAN_MOTION_DDOT": 0}, "tle": {"line1": "1 31608U 99025BZN 25338.59270374  .00016394  00000+0  15593-2 0  9998", "line2": "2 31608  98.3801  96.3020 0146671  63.9077 297.7147 14.85679772985124"}}, "geometry": {"type": "Point", "coordinates": [-85.22841750584162, -21.57869880100584]}}, {"type": "Feature", "properties": {"norad_id": 31609, "name": "FENGYUN 1C DEB", "group": "fengyun-1c-debris", "lat": -30.2472079537103, "lon": -176.81090265794592, "alt_km": 888.0487635803474, "timestamp": "2025-12-06T07:31:40.520132+00:00", "meta": {"OBJECT_NAME": "FENGYUN 1C DEB", "OBJECT_ID": "1999-025BZP", "EPOCH": "2025-12-03T00:38:30.011136", "MEAN_MOTION": 14.15605552, "ECCENTRICITY": 0.00949088, "INCLINATION": 99.2182, "RA_OF_ASC_NODE": 5.225, "ARG_OF_PERICENTER": 348.1387, "MEAN_ANOMALY": 41.5257, "EPHEMERIS_TYPE": 0, "CLASSIFICATION_TYPE": "U", "NORAD_CAT_ID": 31609, "ELEMENT_SET_NO": 999, "REV_AT_EPOCH": 65947, "BSTAR": 0.0032300909, "MEAN_MOTION_DOT": 6.563e-05, "MEAN_MOTION_DDOT": 0}, "tle": {"line1": "1 31609U 99025BZP 25337.02673624  .00006563  00000+0  32301-2 0  9994", "line2": "2 31609  99.2182   5.2250 0094908 348.1387  41.5257 14.15605552659479"}}, "geometry": {"type": "Point", "coordinates": [-176.81090265794592, -30.2472079537103]}}, {"type": "Feature", "properties": {"norad_id": 31612, "name": "FENGYUN 1C DEB", "group": "fengyun-1c-debris", "lat": 57.891672011432114, "lon": -124.0373529147323, "alt_km": 351.49101315251755, "timestamp": "2025-12-06T07:31:40.520141+00:00", "meta": {"OBJECT_NAME": "FENGYUN 1C DEB", "OBJECT_ID": "1999-025BZS", "EPOCH": "2025-11-26T23:13:26.859936", "MEAN_MOTION": 15.63030412, "ECCENTRICITY": 0.0034124, "INCLINATION": 100.3408, "RA_OF_ASC_NODE": 239.2079, "ARG_OF_PERICENTER": 150.8693, "MEAN_ANOMALY": 209.4468, "EPHEMERIS_TYPE": 0, "CLASSIFICATION_TYPE": "U", "NORAD_CAT_ID": 31612, "ELEMENT_SET_NO": 999, "REV_AT_EPOCH": 99915, "BSTAR": 0.0020210875, "MEAN_MOTION_DOT": 0.00192851, "MEAN_MOTION_DDOT": 0}, "tle": {"line1": "1 31612U 99025BZS 25330.96767199  .00192851  00000+0  20211-2 0  9998", "line2": "2 31612 100.3408 239.2079 0034124 150.8693 209.4468 15.63030412999150"}}, "geometry": {"type": "Point", "coordinates": [-124.0373529147323, 57.891672011432114]}}, {"type": "Feature", "properties": {"norad_id": 31613, "name": "FENGYUN 1C DEB", "group": "fengyun-1c-debris", "lat": -30.158221426880605, "lon": 173.14522476929957, "alt_km": 1254.5212056318414, "timestamp": "2025-12-06T07:31:40.520152+00:00", "meta": {"OBJECT_NAME": "FENGYUN 1C DEB", "OBJECT_ID": "1999-025BZT", "EPOCH": "2025-12-01T23:46:06.044736", "MEAN_MOTION": 13.63390808, "ECCENTRICITY": 0.0342814, "INCLINATION": 98.4246, "RA_OF_ASC_NODE": 164.4531, "ARG_OF_PERICENTER": 134.5247, "MEAN_ANOMALY": 228.4457, "EPHEMERIS_TYPE": 0, "CLASSIFICATION_TYPE": "U", "NORAD_CAT_ID": 31613, "ELEMENT_SET_NO": 999, "REV_AT_EPOCH": 91615, "BSTAR": 0.0015294333, "MEAN_MOTION_DOT": 1.76e-05, "MEAN_MOTION_DDOT": 0}, "tle": {"line1": "1 31613U 99025BZT 25335.99034774  .00001760  00000+0  15294-2 0  9996", "line2": "2 31613  98.4246 164.4531 0342814 134.5247 228.4457 13.63390808916156"}}, "geometry": {"type": "Point", "coordinates": [173.14522476929957, -30.158221426880605]}}, {"type": "Feature", "properties": {"norad_id": 31614, "name": "FENGYUN 1C DEB", "group": "fengyun-1c-debris", "lat": -0.11654727687054785, "lon": 65.14204791064472, "alt_km": 598.4740296239133, "timestamp": "2025-12-06T07:31:40.520162+00:00", "meta": {"OBJECT_NAME": "FENGYUN 1C DEB", "OBJECT_ID": "1999-025BZU", "EPOCH": "2025-12-05T07:12:17.546112", "MEAN_MOTION": 14.95433822, "ECCENTRICITY": 0.00232678, "INCLINATION": 98.9742, "RA_OF_ASC_NODE": 244.0011, "ARG_OF_PERICENTER": 21.4174, "MEAN_ANOMALY": 105.181, "EPHEMERIS_TYPE": 0, "CLASSIFICATION_TYPE": "U", "NORAD_CAT_ID": 31614, "ELEMENT_SET_NO": 999, "REV_AT_EPOCH": 96318, "BSTAR": 0.013526033, "MEAN_MOTION_DOT": 0.00153487, "MEAN_MOTION_DDOT": 0}, "tle": {"line1": "1 31614U 99025BZU 25339.30020308  .00153487  00000+0  13526-1 0  9993", "line2": "2 31614  98.9742 244.0011 0023267  21.4174 105.1810 14.95433822963181"}}, "geometry": {"type": "Point", "coordinates": [65.14204791064472, -0.11654727687054785]}}, {"type": "Feature", "properties": {"norad_id": 31615, "name": "FENGYUN 1C DEB", "group": "fengyun-1c-debris", "lat": -15.376848147092135, "lon": 33.90188974179977, "alt_km": 662.0336653485347, "timestamp": "2025-12-06T07:31:40.520172+00:00", "meta": {"OBJECT_NAME": "FENGYUN 1C DEB", "OBJECT_ID": "1999-025BZV", "EPOCH": "2025-12-04T08:44:51.656928", "MEAN_MOTION": 14.35088397, "ECCENTRICITY": 0.0165681, "INCLINATION": 99.1375, "RA_OF_ASC_NODE": 29.302, "ARG_OF_PERICENTER": 341.4981, "MEAN_ANOMALY": 18.0222, "EPHEMERIS_TYPE": 0, "CLASSIFICATION_TYPE": "U", "NORAD_CAT_ID": 31615, "ELEMENT_SET_NO": 999, "REV_AT_EPOCH": 65158, "BSTAR": 0.0076932, "MEAN_MOTION_DOT": 0.00025675, "MEAN_MOTION_DDOT": 0}, "tle": {"line1": "1 31615U 99025BZV 25338.36448677  .00025675  00000+0  76932-2 0  9990", "line2": "2 31615  99.1375  29.3020 0165681 341.4981  18.0222 14.35088397651583"}}, "geometry": {"type": "Point", "coordinates": [33.90188974179977, -15.376848147092135]}}, {"type": "Feature", "properties": {"norad_id": 31618, "name": "FENGYUN 1C DEB", "group": "fengyun-1c-debris", "lat": 18.28183479706457, "lon": 119.64855014547067, "alt_km": 728.067552545147, "timestamp": "2025-12-06T07:31:40.520183+00:00", "meta": {"OBJECT_NAME": "FENGYUN 1C DEB", "OBJECT_ID": "1999-025BZY", "EPOCH": "2025-12-02T15:34:15.484512", "MEAN_MOTION": 14.20997803, "ECCENTRICITY": 0.01574136, "INCLINATION": 99.4427, "RA_OF_ASC_NODE": 118.8846, "ARG_OF_PERICENTER": 354.6274, "MEAN_ANOMALY": 5.3206, "EPHEMERIS_TYPE": 0, "CLASSIFICATION_TYPE": "U", "NORAD_CAT_ID": 31618, "ELEMENT_SET_NO": 999, "REV_AT_EPOCH": 70121, "BSTAR": 0.00034273824, "MEAN_MOTION_DOT": 7.91e-06, "MEAN_MOTION_DDOT": 0}, "tle": {"line1": "1 31618U 99025BZY 25336.64879033  .00000791  00000+0  34274-3 0  9992", "line2": "2 31618  99.4427 118.8846 0157413 354.6274   5.3206 14.20997803701214"}}, "geometry": {"type": "Point", "coordinates": [119.64855014547067, 18.28183479706457]}}]}